{
  "type": "FeatureCollection",
  "features": [
    {
      "type": "Feature",
      "properties": {
        "norad_id": 38867,
        "name": "INTELSAT 23 (IS-23)",
        "group": "intelsat",
        "lat": -0.002343379009245081,
        "lon": 28.41512659531098,
        "alt_km": 35786.63860520976,
        "timestamp": "2025-12-17T23:38:06.530604+00:00",
        "meta_object_name": "INTELSAT 23 (IS-23)",
        "meta_object_id": "2012-057A",
        "meta_epoch": "2025-12-17T09:38:59.623872",
        "meta_mean_motion": 1.00273732,
        "meta_eccentricity": 3.78e-05,
        "meta_inclination": 0.0295,
        "meta_ra_of_asc_node": 83.0302,
        "meta_arg_of_pericenter": 175.0842,
        "meta_mean_anomaly": 279.9522,
        "meta_ephemeris_type": 0,
        "meta_classification_type": "U",
        "meta_norad_cat_id": 38867,
        "meta_element_set_no": 999,
        "meta_rev_at_epoch": 4813,
        "meta_bstar": 0,
        "meta_mean_motion_dot": -2.6e-06,
        "meta_mean_motion_ddot": 0,
        "tle_line1": "1 38867U 12057A   25351.40207898 -.00000260  00000+0  00000+0 0  9998",
        "tle_line2": "2 38867   0.0295  83.0302 0000378 175.0842 279.9522  1.00273732 48138"
      },
      "geometry": {
        "type": "Point",
        "coordinates": [
          28.41512659531098,
          -0.002343379009245081
        ]
      }
    },
    {
      "type": "Feature",
      "properties": {
        "norad_id": 39360,
        "name": "FM-6",
        "group": "intelsat",
        "lat": -0.012678778688804996,
        "lon": -34.77673327753014,
        "alt_km": 35796.92467205538,
        "timestamp": "2025-12-17T23:38:06.530616+00:00",
        "meta_object_name": "FM-6",
        "meta_object_id": "2013-058A",
        "meta_epoch": "2025-12-17T14:05:26.235744",
        "meta_mean_motion": 1.00269555,
        "meta_eccentricity": 0.00028821,
        "meta_inclination": 0.0111,
        "meta_ra_of_asc_node": 62.8493,
        "meta_arg_of_pericenter": 114.4974,
        "meta_mean_anomaly": 4.3142,
        "meta_ephemeris_type": 0,
        "meta_classification_type": "U",
        "meta_norad_cat_id": 39360,
        "meta_element_set_no": 999,
        "meta_rev_at_epoch": 4425,
        "meta_bstar": 0,
        "meta_mean_motion_dot": 8e-08,
        "meta_mean_motion_ddot": 0,
        "tle_line1": "1 39360U 13058A   25351.58710921  .00000008  00000+0  00000+0 0  9993",
        "tle_line2": "2 39360   0.0111  62.8493 0002882 114.4974   4.3142  1.00269555 44250"
      },
      "geometry": {
        "type": "Point",
        "coordinates": [
          -34.77673327753014,
          -0.012678778688804996
        ]
      }
    },
    {
      "type": "Feature",
      "properties": {
        "norad_id": 40271,
        "name": "INTELSAT 30 (IS-30)",
        "group": "intelsat",
        "lat": -0.012852600192196886,
        "lon": -13.702673849895692,
        "alt_km": 35787.2229813741,
        "timestamp": "2025-12-17T23:38:06.530627+00:00",
        "meta_object_name": "INTELSAT 30 (IS-30)",
        "meta_object_id": "2014-062A",
        "meta_epoch": "2025-12-17T12:02:03.779232",
        "meta_mean_motion": 1.00271133,
        "meta_eccentricity": 0.00015891,
        "meta_inclination": 0.0153,
        "meta_ra_of_asc_node": 23.9882,
        "meta_arg_of_pericenter": 60.3263,
        "meta_mean_anomaly": 87.5261,
        "meta_ephemeris_type": 0,
        "meta_classification_type": "U",
        "meta_norad_cat_id": 40271,
        "meta_element_set_no": 999,
        "meta_rev_at_epoch": 497,
        "meta_bstar": 0,
        "meta_mean_motion_dot": -1.26e-06,
        "meta_mean_motion_ddot": 0,
        "tle_line1": "1 40271U 14062A   25351.50143263 -.00000126  00000+0  00000+0 0  9995",
        "tle_line2": "2 40271   0.0153  23.9882 0001589  60.3263  87.5261  1.00271133  4977"
      },
      "geometry": {
        "type": "Point",
        "coordinates": [
          -13.702673849895692,
          -0.012852600192196886
        ]
      }
    },
    {
      "type": "Feature",
      "properties": {
        "norad_id": 40333,
        "name": "DIRECTV 14",
        "group": "intelsat",
        "lat": 0.001578708339814515,
        "lon": -17.841243345686447,
        "alt_km": 35786.7619340797,
        "timestamp": "2025-12-17T23:38:06.530639+00:00",
        "meta_object_name": "DIRECTV 14",
        "meta_object_id": "2014-078B",
        "meta_epoch": "2025-12-17T12:42:03.828672",
        "meta_mean_motion": 1.00275184,
        "meta_eccentricity": 3.88e-05,
        "meta_inclination": 0.0186,
        "meta_ra_of_asc_node": 337.9742,
        "meta_arg_of_pericenter": 189.5014,
        "meta_mean_anomaly": 10.2289,
        "meta_ephemeris_type": 0,
        "meta_classification_type": "U",
        "meta_norad_cat_id": 40333,
        "meta_element_set_no": 999,
        "meta_rev_at_epoch": 4022,
        "meta_bstar": 0,
        "meta_mean_motion_dot": -1.01e-06,
        "meta_mean_motion_ddot": 0,
        "tle_line1": "1 40333U 14078B   25351.52921098 -.00000101  00000+0  00000+0 0  9996",
        "tle_line2": "2 40333   0.0186 337.9742 0000388 189.5014  10.2289  1.00275184 40220"
      },
      "geometry": {
        "type": "Point",
        "coordinates": [
          -17.841243345686447,
          0.001578708339814515
        ]
      }
    },
    {
      "type": "Feature",
      "properties": {
        "norad_id": 40663,
        "name": "DIRECTV 15",
        "group": "intelsat",
        "lat": -0.00832634904654448,
        "lon": -21.49929518729492,
        "alt_km": 35784.405274522505,
        "timestamp": "2025-12-17T23:38:06.530650+00:00",
        "meta_object_name": "DIRECTV 15",
        "meta_object_id": "2015-026A",
        "meta_epoch": "2025-12-17T12:57:48.390624",
        "meta_mean_motion": 1.00276862,
        "meta_eccentricity": 9.79e-06,
        "meta_inclination": 0.0268,
        "meta_ra_of_asc_node": 349.3796,
        "meta_arg_of_pericenter": 298.882,
        "meta_mean_anomaly": 249.7283,
        "meta_ephemeris_type": 0,
        "meta_classification_type": "U",
        "meta_norad_cat_id": 40663,
        "meta_element_set_no": 999,
        "meta_rev_at_epoch": 3864,
        "meta_bstar": 0,
        "meta_mean_motion_dot": 0,
        "meta_mean_motion_ddot": 0,
        "tle_line1": "1 40663U 15026A   25351.54014341  .00000000  00000+0  00000+0 0  9999",
        "tle_line2": "2 40663   0.0268 349.3796 0000097 298.8820 249.7283  1.00276862 38649"
      },
      "geometry": {
        "type": "Point",
        "coordinates": [
          -21.49929518729492,
          -0.00832634904654448
        ]
      }
    },
    {
      "type": "Feature",
      "properties": {
        "norad_id": 40664,
        "name": "SKY MEXICO-1",
        "group": "intelsat",
        "lat": 0.02381537274541546,
        "lon": 2.6302437941828893,
        "alt_km": 35784.329300683574,
        "timestamp": "2025-12-17T23:38:06.530662+00:00",
        "meta_object_name": "SKY MEXICO-1",
        "meta_object_id": "2015-026B",
        "meta_epoch": "2025-12-17T12:57:02.202048",
        "meta_mean_motion": 1.00271164,
        "meta_eccentricity": 0.00024005,
        "meta_inclination": 0.0165,
        "meta_ra_of_asc_node": 308.8091,
        "meta_arg_of_pericenter": 335.1498,
        "meta_mean_anomaly": 277.9505,
        "meta_ephemeris_type": 0,
        "meta_classification_type": "U",
        "meta_norad_cat_id": 40664,
        "meta_element_set_no": 999,
        "meta_rev_at_epoch": 3863,
        "meta_bstar": 0,
        "meta_mean_motion_dot": -2.1e-06,
        "meta_mean_motion_ddot": 0,
        "tle_line1": "1 40664U 15026B   25351.53960882 -.00000210  00000+0  00000+0 0  9993",
        "tle_line2": "2 40664   0.0165 308.8091 0002400 335.1498 277.9505  1.00271164 38639"
      },
      "geometry": {
        "type": "Point",
        "coordinates": [
          2.6302437941828893,
          0.02381537274541546
        ]
      }
    },
    {
      "type": "Feature",
      "properties": {
        "norad_id": 40874,
        "name": "INTELSAT 34 (IS-34)",
        "group": "intelsat",
        "lat": 0.028572470476493732,
        "lon": 25.85826906325482,
        "alt_km": 35787.77624769473,
        "timestamp": "2025-12-17T23:38:06.530674+00:00",
        "meta_object_name": "INTELSAT 34 (IS-34)",
        "meta_object_id": "2015-039A",
        "meta_epoch": "2025-12-17T13:03:46.556640",
        "meta_mean_motion": 1.00270274,
        "meta_eccentricity": 6.422e-05,
        "meta_inclination": 0.0109,
        "meta_ra_of_asc_node": 319.8418,
        "meta_arg_of_pericenter": 183.1904,
        "meta_mean_anomaly": 83.8297,
        "meta_ephemeris_type": 0,
        "meta_classification_type": "U",
        "meta_norad_cat_id": 40874,
        "meta_element_set_no": 999,
        "meta_rev_at_epoch": 3780,
        "meta_bstar": 0,
        "meta_mean_motion_dot": -2.61e-06,
        "meta_mean_motion_ddot": 0,
        "tle_line1": "1 40874U 15039A   25351.54428885 -.00000261  00000+0  00000+0 0  9999",
        "tle_line2": "2 40874   0.0109 319.8418 0000642 183.1904  83.8297  1.00270274 37805"
      },
      "geometry": {
        "type": "Point",
        "coordinates": [
          25.85826906325482,
          0.028572470476493732
        ]
      }
    }
  ]
}